start=new Date('2022-06-06T00:00:00.000Z').valueOf();
sats=[{"TLE_LINE2":"2 46073  53.0544 140.2490 0002124  47.8696 312.2474 15.06404605102368","INCLINATION":"53.0544","MEAN_ELEMENT_THEORY":"SGP4","MEAN_MOTION":"15.06404605","TLE_LINE1":"1 46073U 20055AY  22156.69347521  .00001239  00000-0  10205-3 0  9991","DECAY_DATE":null,"REF_FRAME":"TEME","LAUNCH_DATE":"2020-08-07","PERIOD":"95.592","MEAN_MOTION_DDOT":"0.0000000000000","REV_AT_EPOCH":"10236","RCS_SIZE":"LARGE","FILE":"3482995","EPHEMERIS_TYPE":"0","MEAN_MOTION_DOT":"0.00001239","BSTAR":"0.00010205000000","NORAD_CAT_ID":"46073","PERIAPSIS":"545.729","OBJECT_ID":"2020-055AY","MEAN_ANOMALY":"312.2474","SEMIMAJOR_AXIS":"6925.334","EPOCH":"2022-06-05T16:38:36.258144","ELEMENT_SET_NO":"999","GP_ID":"205444994","APOAPSIS":"548.670","ECCENTRICITY":"0.00021240","SITE":"AFETR","TIME_SYSTEM":"UTC","CLASSIFICATION_TYPE":"U","RA_OF_ASC_NODE":"140.2490","OBJECT_TYPE":"PAYLOAD","OBJECT_NAME":"STARLINK-1542","COUNTRY_CODE":"US","CENTER_NAME":"EARTH","ARG_OF_PERICENTER":"47.8696"},{"CLASSIFICATION_TYPE":"U","RA_OF_ASC_NODE":"140.2968","OBJECT_TYPE":"PAYLOAD","OBJECT_NAME":"STARLINK-1549","SITE":"AFETR","TIME_SYSTEM":"UTC","ARG_OF_PERICENTER":"48.6983","COUNTRY_CODE":"US","CENTER_NAME":"EARTH","EPOCH":"2022-06-05T16:17:23.123040","GP_ID":"205443742","ECCENTRICITY":"0.00021920","APOAPSIS":"548.738","ELEMENT_SET_NO":"999","MEAN_MOTION_DOT":"0.00000730","EPHEMERIS_TYPE":"0","BSTAR":"0.00006788900000","NORAD_CAT_ID":"46074","MEAN_ANOMALY":"311.4194","SEMIMAJOR_AXIS":"6925.355","OBJECT_ID":"2020-055AZ","PERIAPSIS":"545.702","MEAN_ELEMENT_THEORY":"SGP4","MEAN_MOTION":"15.06397855","TLE_LINE1":"1 46074U 20055AZ  22156.67873985  .00000730  00000-0  67889-4 0  9994","DECAY_DATE":null,"TLE_LINE2":"2 46074  53.0541 140.2968 0002192  48.6983 311.4194 15.06397855102356","INCLINATION":"53.0541","MEAN_MOTION_DDOT":"0.0000000000000","REV_AT_EPOCH":"10235","RCS_SIZE":"LARGE","FILE":"3482995","REF_FRAME":"TEME","LAUNCH_DATE":"2020-08-07","PERIOD":"95.592"},{"COUNTRY_CODE":"US","CENTER_NAME":"EARTH","ARG_OF_PERICENTER":"55.2160","SITE":"AFETR","TIME_SYSTEM":"UTC","CLASSIFICATION_TYPE":"U","OBJECT_TYPE":"PAYLOAD","RA_OF_ASC_NODE":"141.3701","OBJECT_NAME":"STARLINK-1551","ELEMENT_SET_NO":"999","GP_ID":"205443992","APOAPSIS":"548.722","ECCENTRICITY":"0.00021530","EPOCH":"2022-06-05T10:32:23.076672","OBJECT_ID":"2020-055BA","PERIAPSIS":"545.740","MEAN_ANOMALY":"304.9032","SEMIMAJOR_AXIS":"6925.366","EPHEMERIS_TYPE":"0","MEAN_MOTION_DOT":"-0.00001191","BSTAR":"-0.00006106900000","NORAD_CAT_ID":"46075","REF_FRAME":"TEME","LAUNCH_DATE":"2020-08-07","PERIOD":"95.592","REV_AT_EPOCH":"10232","MEAN_MOTION_DDOT":"0.0000000000000","RCS_SIZE":"LARGE","FILE":"3482995","TLE_LINE2":"2 46075  53.0530 141.3701 0002153  55.2160 304.9032 15.06394438102329","INCLINATION":"53.0530","MEAN_ELEMENT_THEORY":"SGP4","TLE_LINE1":"1 46075U 20055BA  22156.43915598 -.00001191  00000-0 -61069-4 0  9994","MEAN_MOTION":"15.06394438","DECAY_DATE":null},{"SITE":"AFETR","TIME_SYSTEM":"UTC","CLASSIFICATION_TYPE":"U","OBJECT_NAME":"STARLINK-1552","RA_OF_ASC_NODE":"140.3781","OBJECT_TYPE":"PAYLOAD","COUNTRY_CODE":"US","CENTER_NAME":"EARTH","ARG_OF_PERICENTER":"51.0051","EPOCH":"2022-06-05T15:56:09.240576","ELEMENT_SET_NO":"999","GP_ID":"205444244","APOAPSIS":"548.954","ECCENTRICITY":"0.00025520","EPHEMERIS_TYPE":"0","MEAN_MOTION_DOT":"0.00000910","NORAD_CAT_ID":"46076","BSTAR":"0.00007997600000","OBJECT_ID":"2020-055BB","PERIAPSIS":"545.420","MEAN_ANOMALY":"309.1165","SEMIMAJOR_AXIS":"6925.322","INCLINATION":"53.0545","TLE_LINE2":"2 46076  53.0545 140.3781 0002552  51.0051 309.1165 15.06408637102342","TLE_LINE1":"1 46076U 20055BB  22156.66399584  .00000910  00000-0  79976-4 0  9993","MEAN_MOTION":"15.06408637","MEAN_ELEMENT_THEORY":"SGP4","DECAY_DATE":null,"LAUNCH_DATE":"2020-08-07","REF_FRAME":"TEME","PERIOD":"95.592","MEAN_MOTION_DDOT":"0.0000000000000","REV_AT_EPOCH":"10234","FILE":"3482995","RCS_SIZE":"LARGE"},{"MEAN_MOTION_DDOT":"0.0000000000000","REV_AT_EPOCH":"10231","FILE":"3482995","RCS_SIZE":"LARGE","LAUNCH_DATE":"2020-08-07","REF_FRAME":"TEME","PERIOD":"95.592","MEAN_MOTION":"15.06395663","TLE_LINE1":"1 46077U 20055BC  22156.64557246 -.00001237  00000-0 -64140-4 0  9995","MEAN_ELEMENT_THEORY":"SGP4","DECAY_DATE":null,"INCLINATION":"53.0557","TLE_LINE2":"2 46077  53.0557 140.4558 0002060  48.7312 311.3854 15.06395663102317","MEAN_ANOMALY":"311.3854","SEMIMAJOR_AXIS":"6925.362","OBJECT_ID":"2020-055BC","PERIAPSIS":"545.800","EPHEMERIS_TYPE":"0","MEAN_MOTION_DOT":"-0.00001237","NORAD_CAT_ID":"46077","BSTAR":"-0.00006414000000","GP_ID":"205444495","ECCENTRICITY":"0.00020600","APOAPSIS":"548.653","ELEMENT_SET_NO":"999","EPOCH":"2022-06-05T15:29:37.460544","ARG_OF_PERICENTER":"48.7312","COUNTRY_CODE":"US","CENTER_NAME":"EARTH","CLASSIFICATION_TYPE":"U","OBJECT_NAME":"STARLINK-1559","RA_OF_ASC_NODE":"140.4558","OBJECT_TYPE":"PAYLOAD","SITE":"AFETR","TIME_SYSTEM":"UTC"},{"PERIOD":"95.592","REF_FRAME":"TEME","LAUNCH_DATE":"2020-08-07","RCS_SIZE":"LARGE","FILE":"3482995","MEAN_MOTION_DDOT":"0.0000000000000","REV_AT_EPOCH":"10233","TLE_LINE2":"2 46078  53.0534 140.2629 0002123  47.2417 312.8750 15.06405363102332","INCLINATION":"53.0534","DECAY_DATE":null,"MEAN_ELEMENT_THEORY":"SGP4","TLE_LINE1":"1 46078U 20055BD  22156.68980028 -.00002495  00000-0 -14859-3 0  9996","MEAN_MOTION":"15.06405363","PERIAPSIS":"545.727","OBJECT_ID":"2020-055BD","SEMIMAJOR_AXIS":"6925.332","MEAN_ANOMALY":"312.8750","BSTAR":"-0.00014859000000","NORAD_CAT_ID":"46078","EPHEMERIS_TYPE":"0","MEAN_MOTION_DOT":"-0.00002495","ELEMENT_SET_NO":"999","ECCENTRICITY":"0.00021230","APOAPSIS":"548.667","GP_ID":"205443243","EPOCH":"2022-06-05T16:33:18.744192","CENTER_NAME":"EARTH","COUNTRY_CODE":"US","ARG_OF_PERICENTER":"47.2417","TIME_SYSTEM":"UTC","SITE":"AFETR","RA_OF_ASC_NODE":"140.2629","OBJECT_TYPE":"PAYLOAD","OBJECT_NAME":"STARLINK-1563","CLASSIFICATION_TYPE":"U"},{"EPHEMERIS_TYPE":"0","MEAN_MOTION_DOT":"0.00001010","NORAD_CAT_ID":"46079","BSTAR":"0.00008670100000","OBJECT_ID":"2020-055BE","PERIAPSIS":"545.920","MEAN_ANOMALY":"295.7302","SEMIMAJOR_AXIS":"6925.339","INCLINATION":"53.0544","TLE_LINE2":"2 46079  53.0544 140.2862 0001853  64.3878 295.7302 15.06403217102364","TLE_LINE1":"1 46079U 20055BE  22156.68244056  .00001010  00000-0  86701-4 0  9997","MEAN_MOTION":"15.06403217","MEAN_ELEMENT_THEORY":"SGP4","DECAY_DATE":null,"LAUNCH_DATE":"2020-08-07","REF_FRAME":"TEME","PERIOD":"95.592","MEAN_MOTION_DDOT":"0.0000000000000","REV_AT_EPOCH":"10236","FILE":"3482995","RCS_SIZE":"LARGE","SITE":"AFETR","TIME_SYSTEM":"UTC","CLASSIFICATION_TYPE":"U","OBJECT_NAME":"STARLINK-1566","RA_OF_ASC_NODE":"140.2862","OBJECT_TYPE":"PAYLOAD","COUNTRY_CODE":"US","CENTER_NAME":"EARTH","ARG_OF_PERICENTER":"64.3878","EPOCH":"2022-06-05T16:22:42.864384","ELEMENT_SET_NO":"999","GP_ID":"205443493","ECCENTRICITY":"0.00018530","APOAPSIS":"548.487"},{"GP_ID":"205444744","ECCENTRICITY":"0.00020030","APOAPSIS":"547.745","ELEMENT_SET_NO":"999","EPOCH":"2022-06-05T13:47:30.749280","ARG_OF_PERICENTER":"39.0797","COUNTRY_CODE":"US","CENTER_NAME":"EARTH","CLASSIFICATION_TYPE":"U","OBJECT_NAME":"STARLINK-1568","RA_OF_ASC_NODE":"140.7503","OBJECT_TYPE":"PAYLOAD","SITE":"AFETR","TIME_SYSTEM":"UTC","MEAN_MOTION_DDOT":"0.0000000000000","REV_AT_EPOCH":"10232","FILE":"3482995","RCS_SIZE":"LARGE","LAUNCH_DATE":"2020-08-07","REF_FRAME":"TEME","PERIOD":"95.574","MEAN_MOTION":"15.06679165","TLE_LINE1":"1 46080U 20055BF  22156.57466145 -.00049587  00000-0 -33081-2 0  9996","MEAN_ELEMENT_THEORY":"SGP4","DECAY_DATE":null,"INCLINATION":"53.0550","TLE_LINE2":"2 46080  53.0550 140.7503 0002003  39.0797 321.0336 15.06679165102320","MEAN_ANOMALY":"321.0336","SEMIMAJOR_AXIS":"6924.493","OBJECT_ID":"2020-055BF","PERIAPSIS":"544.971","EPHEMERIS_TYPE":"0","MEAN_MOTION_DOT":"-0.00049587","NORAD_CAT_ID":"46080","BSTAR":"-0.00330810000000"},{"RCS_SIZE":"LARGE","FILE":"3482995","REV_AT_EPOCH":"10235","MEAN_MOTION_DDOT":"0.0000000000000","PERIOD":"95.593","REF_FRAME":"TEME","LAUNCH_DATE":"2020-08-07","DECAY_DATE":null,"MEAN_ELEMENT_THEORY":"SGP4","TLE_LINE1":"1 46081U 20055BG  22156.67506452  .00000972  00000-0  84187-4 0  9992","MEAN_MOTION":"15.06392992","TLE_LINE2":"2 46081  53.0542 140.3131 0001905  53.7926 306.3239 15.06392992102353","INCLINATION":"53.0542","SEMIMAJOR_AXIS":"6925.370","MEAN_ANOMALY":"306.3239","OBJECT_ID":"2020-055BG","PERIAPSIS":"545.916","BSTAR":"0.00008418700000","NORAD_CAT_ID":"46081","MEAN_MOTION_DOT":"0.00000972","EPHEMERIS_TYPE":"0","APOAPSIS":"548.554","ECCENTRICITY":"0.00019050","GP_ID":"205444995","ELEMENT_SET_NO":"999","EPOCH":"2022-06-05T16:12:05.574528","ARG_OF_PERICENTER":"53.7926","CENTER_NAME":"EARTH","COUNTRY_CODE":"US","OBJECT_TYPE":"PAYLOAD","RA_OF_ASC_NODE":"140.3131","OBJECT_NAME":"STARLINK-1571","CLASSIFICATION_TYPE":"U","TIME_SYSTEM":"UTC","SITE":"AFETR"},{"CLASSIFICATION_TYPE":"U","RA_OF_ASC_NODE":"141.4168","OBJECT_TYPE":"PAYLOAD","OBJECT_NAME":"STARLINK-1578","SITE":"AFETR","TIME_SYSTEM":"UTC","ARG_OF_PERICENTER":"65.0404","COUNTRY_CODE":"US","CENTER_NAME":"EARTH","EPOCH":"2022-06-05T10:21:46.180800","GP_ID":"205443743","APOAPSIS":"548.492","ECCENTRICITY":"0.00017810","ELEMENT_SET_NO":"999","MEAN_MOTION_DOT":"0.00001274","EPHEMERIS_TYPE":"0","BSTAR":"0.00010444000000","NORAD_CAT_ID":"46082","MEAN_ANOMALY":"295.0770","SEMIMAJOR_AXIS":"6925.393","OBJECT_ID":"2020-055BH","PERIAPSIS":"546.025","MEAN_ELEMENT_THEORY":"SGP4","MEAN_MOTION":"15.06385397","TLE_LINE1":"1 46082U 20055BH  22156.43178450  .00001274  00000-0  10444-3 0  9990","DECAY_DATE":null,"TLE_LINE2":"2 46082  53.0554 141.4168 0001781  65.0404 295.0770 15.06385397102320","INCLINATION":"53.0554","MEAN_MOTION_DDOT":"0.0000000000000","REV_AT_EPOCH":"10232","RCS_SIZE":"LARGE","FILE":"3482995","REF_FRAME":"TEME","LAUNCH_DATE":"2020-08-07","PERIOD":"95.593"}];
